[{"OBJECT_ID":"2014-062A","OBJECT_NAME":"INTELSAT 30","NORAD_CAT_ID":"40271","OBJECT_TYPE":"PAYLOAD","PERIOD":"1436.159","INCLINATION":"0.0355","APOGEE":"35798.108","PERIGEE":"35777.523","ECCENTRICITY":"0.0002441","MEAN_MOTION":"1.00267437","TLE_LINE1":"1 40271U 14062A   16237.62305015  .00000000  00000-0  10000-3 0  9992","TLE_LINE2":"2 40271   0.0355  90.7211 0002441 343.8989  27.9301  1.00267437  6844","LAUNCH_DATE":"2014-10-16","LAUNCH_SITE":"FRENCH GUIANA","OWNER":"INTERNATIONAL TELECOMMUNICATIONS SATELLITE ORGANIZATION (INTELSAT)","ORBIT_TYPE":"Geosynchronous","OPERATIONAL_STATUS":"Operational","satInfo":{"lng":-106.63102440395774,"lat":0.46791524285433117,"elevation":-8.113765553870577,"azimuth":61.63102440395771,"range":42603.49198822504,"height":35800.28963397236,"velocity":3.0738676229583946},"x":-343,"y":102,"dx":-9,"dy":29},{"OBJECT_ID":"2014-062B","OBJECT_NAME":"ARSAT 1","NORAD_CAT_ID":"40272","OBJECT_TYPE":"PAYLOAD","PERIOD":"1436.112","INCLINATION":"0.0377","APOGEE":"35792.226","PERIGEE":"35781.566","ECCENTRICITY":"0.0001264","MEAN_MOTION":"1.00270717","TLE_LINE1":"1 40272U 14062B   16239.27101584 -.00000288  00000-0  00000+0 0  9995","TLE_LINE2":"2 40272   0.0377 265.5387 0001264 274.5490 180.6080  1.00270717  6974","LAUNCH_DATE":"2014-10-16","LAUNCH_SITE":"FRENCH GUIANA","OWNER":"ARGENTINA","ORBIT_TYPE":"Geosynchronous","OPERATIONAL_STATUS":"Operational","satInfo":{"lng":-89.1620381231856,"lat":0.44180065135054203,"elevation":-8.139876447912426,"azimuth":44.162038123185575,"range":42603.53395484189,"height":35797.4339929927,"velocity":3.074406580184569},"x":-358,"y":-5,"dx":0,"dy":31},{"OBJECT_ID":"2014-064A","OBJECT_NAME":"EXPRESS AM-6","NORAD_CAT_ID":"40277","OBJECT_TYPE":"PAYLOAD","PERIOD":"1435.856","INCLINATION":"0.0254","APOGEE":"35788.100","PERIGEE":"35775.662","ECCENTRICITY":"0.0001475","MEAN_MOTION":"1.00288608","TLE_LINE1":"1 40277U 14064A   16238.65638664  .00000069  00000-0  00000+0 0  9993","TLE_LINE2":"2 40277   0.0254 242.6845 0001475 113.7513 267.2092  1.00288608  6740","LAUNCH_DATE":"2014-10-21","LAUNCH_SITE":"TYURATAM MISSILE AND SPACE COMPLEX","OWNER":"COMMONWEALTH OF INDEPENDENT STATES","ORBIT_TYPE":"Geosynchronous","OPERATIONAL_STATUS":"Operational","satInfo":{"lng":98.13762026732263,"lat":-1.3101181154229713,"elevation":-9.851651415582975,"azimuth":216.86237973267737,"range":42783.563469527326,"height":35785.55342326415,"velocity":3.074809851628064},"x":354,"y":51,"dx":-4,"dy":-30},{"OBJECT_ID":"2014-064B","OBJECT_NAME":"BREEZE-M R/B","NORAD_CAT_ID":"40278","OBJECT_TYPE":"ROCKET BODY","PERIOD":"1512.243","INCLINATION":"0.47","APOGEE":"39734.921","PERIGEE":"34793.466","ECCENTRICITY":"0.0566131","MEAN_MOTION":"0.95222787","TLE_LINE1":"1 40278U 14064B   16238.93816758 -.00000155  00000-0  00000+0 0  9994","TLE_LINE2":"2 40278   0.4700  80.6914 0566131 145.2013 129.3295  0.95222787  6436","LAUNCH_DATE":"2014-10-21","LAUNCH_SITE":"TYURATAM MISSILE AND SPACE COMPLEX","OWNER":"COMMONWEALTH OF INDEPENDENT STATES","ORBIT_TYPE":"Unclassified","OPERATIONAL_STATUS":"N/A, derelict rocket body","satInfo":{"lng":24.36537941400439,"lat":-2.2693542432099205,"elevation":-10.225934026157791,"azimuth":290.6346205859956,"range":45877.23867534782,"height":38805.761408156235,"velocity":2.917245091482444},"x":160,"y":-353,"dx":27,"dy":-12},{"OBJECT_ID":"2014-078A","OBJECT_NAME":"GSAT 16","NORAD_CAT_ID":"40332","OBJECT_TYPE":"PAYLOAD","PERIOD":"1436.100","INCLINATION":"0.0426","APOGEE":"35811.398","PERIGEE":"35761.930","ECCENTRICITY":"0.0005866","MEAN_MOTION":"1.00271543","TLE_LINE1":"1 40332U 14078A   16238.91782999 +.00000057 +00000-0 +00000-0 0  9998","TLE_LINE2":"2 40332 000.0426 272.8159 0005866 193.3721 253.8697 01.00271543006213","LAUNCH_DATE":"2014-12-06","LAUNCH_SITE":"FRENCH GUIANA","OWNER":"INDIA","ORBIT_TYPE":"Geosynchronous","OPERATIONAL_STATUS":"Operational","satInfo":{"lng":94.83520888890558,"lat":-0.3148592320465859,"elevation":-8.885407044644127,"azimuth":220.1647911110944,"range":42655.28320457084,"height":35765.88599031234,"velocity":3.0761295017045533},"x":356,"y":30,"dx":-3,"dy":-31},{"OBJECT_ID":"2014-078B","OBJECT_NAME":"DIRECTV 14","NORAD_CAT_ID":"40333","OBJECT_TYPE":"PAYLOAD","PERIOD":"1436.096","INCLINATION":"0.0366","APOGEE":"35790.367","PERIGEE":"35782.803","ECCENTRICITY":"8.97e-05","MEAN_MOTION":"1.00271825","TLE_LINE1":"1 40333U 14078B   16239.11229942 -.00000154  00000-0  00000+0 0  9994","TLE_LINE2":"2 40333   0.0366 300.0091 0000897  42.7815 293.1751  1.00271825  6329","LAUNCH_DATE":"2014-12-06","LAUNCH_SITE":"FRENCH GUIANA","OWNER":"UNITED STATES OF AMERICA","ORBIT_TYPE":"Geosynchronous","OPERATIONAL_STATUS":"Operational","satInfo":{"lng":-104.83733065699998,"lat":-1.2905049490666174,"elevation":-9.831472951337041,"azimuth":59.837330656999896,"range":42786.80497922822,"height":35790.9969196982,"velocity":3.074463406907359},"x":-346,"y":92,"dx":-8,"dy":30},{"OBJECT_ID":"2014-082A","OBJECT_NAME":"YAMAL 401","NORAD_CAT_ID":"40345","OBJECT_TYPE":"PAYLOAD","PERIOD":"1436.104","INCLINATION":"0.0292","APOGEE":"35788.938","PERIGEE":"35784.570","ECCENTRICITY":"5.18e-05","MEAN_MOTION":"1.00271224","TLE_LINE1":"1 40345U 14082A   16239.05327470 -.00000256  00000-0  00000+0 0  9993","TLE_LINE2":"2 40345   0.0292 129.0573 0000518 286.5594  28.2207  1.00271224  6490","LAUNCH_DATE":"2014-12-15","LAUNCH_SITE":"TYURATAM MISSILE AND SPACE COMPLEX","OWNER":"COMMONWEALTH OF INDEPENDENT STATES","ORBIT_TYPE":"Geosynchronous","OPERATIONAL_STATUS":"Operational","satInfo":{"lng":60.50184713090375,"lat":-1.7098003158409363,"elevation":-10.240985440735821,"azimuth":254.49815286909626,"range":42825.19235313621,"height":35783.54619494039,"velocity":3.0748755917242354},"x":311,"y":-176,"dx":15,"dy":-27},{"OBJECT_ID":"2014-082B","OBJECT_NAME":"BREEZE-M R/B","NORAD_CAT_ID":"40346","OBJECT_TYPE":"ROCKET BODY","PERIOD":"1293.391","INCLINATION":"1.4397","APOGEE":"35376.612","PERIGEE":"30513.149","ECCENTRICITY":"0.0618399","MEAN_MOTION":"1.1133521","TLE_LINE1":"1 40346U 14082B   16237.80401350 -.00000141  00000-0  00000+0 0  9998","TLE_LINE2":"2 40346   1.4397  99.5316 0618399  61.7743 304.6604  1.11335210  6837","LAUNCH_DATE":"2014-12-15","LAUNCH_SITE":"TYURATAM MISSILE AND SPACE COMPLEX","OWNER":"COMMONWEALTH OF INDEPENDENT STATES","ORBIT_TYPE":"Unclassified","OPERATIONAL_STATUS":"N/A, derelict rocket body","satInfo":{"lng":-21.537643253359885,"lat":-3.301491127242456,"elevation":-11.996373229290974,"azimuth":336.5376432533598,"range":41966.06944152475,"height":34739.597020484965,"velocity":3.0417129156845326},"x":-128,"y":-323,"dx":28,"dy":11},{"OBJECT_ID":"2014-085A","OBJECT_NAME":"DUMMY SAT 2/BREEZE-M","NORAD_CAT_ID":"40355","OBJECT_TYPE":"PAYLOAD","PERIOD":"1530.920","INCLINATION":"1.5239","APOGEE":"39081.379","PERIGEE":"36164.223","ECCENTRICITY":"0.0331488","MEAN_MOTION":"0.94061063","TLE_LINE1":"1 40355U 14085A   16238.21435198 -.00000166 +00000-0 +00000-0 0  9992","TLE_LINE2":"2 40355 001.5239 092.1985 0331488 260.4590 096.2128 00.94061063005514","LAUNCH_DATE":"2014-12-23","LAUNCH_SITE":"PLESETSK MISSILE AND SPACE COMPLEX","OWNER":"COMMONWEALTH OF INDEPENDENT STATES","ORBIT_TYPE":"Unclassified","OPERATIONAL_STATUS":"Nonoperational","satInfo":{"lng":-134.17055129189148,"lat":2.702195813848682,"elevation":-5.325371578138156,"azimuth":89.17055129189143,"range":45485.75090554261,"height":38961.65095495028,"velocity":2.919612185524158},"x":-279,"y":271,"dx":-20,"dy":21},{"OBJECT_ID":"2014-089A","OBJECT_NAME":"ASTRA 2G","NORAD_CAT_ID":"40364","OBJECT_TYPE":"PAYLOAD","PERIOD":"1436.140","INCLINATION":"0.0509","APOGEE":"35799.957","PERIGEE":"35774.961","ECCENTRICITY":"0.0002964","MEAN_MOTION":"1.00268709","TLE_LINE1":"1 40364U 14089A   16238.99210362  .00000122  00000-0  00000+0 0  9995","TLE_LINE2":"2 40364   0.0509 307.2893 0002964 146.5807 266.1570  1.00268709  6104","LAUNCH_DATE":"2014-12-27","LAUNCH_SITE":"TYURATAM MISSILE AND SPACE COMPLEX","OWNER":"SOCIÉTÉ EUROPÉENNE DES SATELLITES","ORBIT_TYPE":"Geosynchronous","OPERATIONAL_STATUS":"Operational","satInfo":{"lng":69.14266946219476,"lat":1.4931334104507217,"elevation":-7.11956205722688,"azimuth":245.85733053780518,"range":42443.32640175913,"height":35752.22842867419,"velocity":3.0762321520270186},"x":334,"y":-127,"dx":11,"dy":-29},{"OBJECT_ID":"2014-090A","OBJECT_NAME":"FENGYUN 2G","NORAD_CAT_ID":"40367","OBJECT_TYPE":"PAYLOAD","PERIOD":"1436.040","INCLINATION":"1.0482","APOGEE":"35795.913","PERIGEE":"35775.084","ECCENTRICITY":"0.000247","MEAN_MOTION":"1.00275701","TLE_LINE1":"1 40367U 14090A   16238.86176439 -.00000357  00000-0  00000+0 0  9993","TLE_LINE2":"2 40367   1.0482 270.2868 0002470 321.8385 157.2565  1.00275701  6126","LAUNCH_DATE":"2014-12-31","LAUNCH_SITE":"Xichang Space Center, China","OWNER":"PEOPLES REPUBLIC OF CHINA","ORBIT_TYPE":"Geosynchronous","OPERATIONAL_STATUS":"Operational","satInfo":{"lng":49.82706603229709,"lat":0.7298307076217888,"elevation":-7.85668669196167,"azimuth":265.17293396770293,"range":42578.946733465185,"height":35804.543357078626,"velocity":3.073712980156448},"x":274,"y":-231,"dx":20,"dy":-23},{"OBJECT_ID":"2014-090C","OBJECT_NAME":"FENGYUN 2G AKM","NORAD_CAT_ID":"40369","OBJECT_TYPE":"ROCKET BODY","PERIOD":"1446.060","INCLINATION":"1.1051","APOGEE":"36172.100","PERIGEE":"35790.678","ECCENTRICITY":"0.0045022","MEAN_MOTION":"0.99580923","TLE_LINE1":"1 40369U 14090C   16237.65774933  .00000089  00000-0  00000+0 0  9995","TLE_LINE2":"2 40369   1.1051 270.9330 0045022 264.7656  94.1940  0.99580923  6003","LAUNCH_DATE":"2014-12-31","LAUNCH_SITE":"Xichang Space Center, China","OWNER":"PEOPLES REPUBLIC OF CHINA","ORBIT_TYPE":"Geosynchronous","OPERATIONAL_STATUS":"N/A, derelict rocket body","satInfo":{"lng":95.97309215683035,"lat":-0.22161104765347003,"elevation":-8.737578796501476,"azimuth":219.02690784316965,"range":42927.427869834115,"height":36051.41221266539,"velocity":3.0625252153281104},"x":359,"y":38,"dx":-3,"dy":-30}]